1 42790U 17036AB  22257.36028561  .00022953  00000-0  64749-3 0  9992
2 42790  97.1933 301.2526 0007220   9.4262 350.7117 15.36378743290887
1 42790U 17036AB  22258.07671240  .00027099  00000-0  76274-3 0  9991
2 42790  97.1932 301.9531 0007173   6.5245 353.6092 15.36416500290995
1 42790U 17036AB  22258.59773867  .00024712  00000-0  69536-3 0  9998
2 42790  97.1933 302.4624 0007057   4.7244 355.4066 15.36443258291076
1 42790U 17036AB  22259.11875600  .00025721  00000-0  72296-3 0  9993
2 42790  97.1933 302.9720 0007035   2.8032 357.3251 15.36470583291155
1 42790U 17036AB  22260.09564268  .00024288  00000-0  68205-3 0  9999
2 42790  97.1932 303.9269 0006924 359.0329   1.0901 15.36511570291309
1 42790U 17036AB  22260.87713391  .00021931  00000-0  61570-3 0  9998
2 42790  97.1936 304.6915 0006814 356.3098   3.8095 15.36540904291420
1 42790U 17036AB  22261.33299555  .00020521  00000-0  57598-3 0  9990
2 42790  97.1938 305.1373 0006759 354.1661   5.9504 15.36560820291490
1 42790U 17036AB  22261.72372988  .00023110  00000-0  64778-3 0  9990
2 42790  97.1938 305.5194 0006688 352.8164   7.2984 15.36579754291559
1 42790U 17036AB  22262.11445954  .00021360  00000-0  59872-3 0  9992
2 42790  97.1937 305.9017 0006679 351.1305   8.9821 15.36596276291618
1 42790U 17036AB  22263.54709673  .00019554  00000-0  54730-3 0  9991
2 42790  97.1938 307.3026 0006476 345.0124  15.0928 15.36660152291837
